CCSDS_OMM_VERS = 2.0
CREATION_DATE  = 
ORIGINATOR     = 

OBJECT_NAME    = LEMUR-2-KUTAR
OBJECT_ID      = 2026-004A
CENTER_NAME    = EARTH
REF_FRAME      = TEME
TIME_SYSTEM    = UTC
MEAN_ELEMENT_THEORY = SGP/SGP4

EPOCH          = 2026-02-09T05:07:03.448704
MEAN_MOTION    = 14.87084781
ECCENTRICITY   = .00084528
INCLINATION    = 97.8009
RA_OF_ASC_NODE = 40.8642
ARG_OF_PERICENTER = 190.4973
MEAN_ANOMALY   = 169.6068

EPHEMERIS_TYPE = 0
CLASSIFICATION_TYPE = U
NORAD_CAT_ID   = 67363
ELEMENT_SET_NO = 999
REV_AT_EPOCH   = 425
BSTAR          = .79545632E-3
MEAN_MOTION_DOT = .7093E-4
MEAN_MOTION_DDOT = 0

CCSDS_OMM_VERS = 2.0
CREATION_DATE  = 
ORIGINATOR     = 

OBJECT_NAME    = LEMUR-2-CALLUM-K-J
OBJECT_ID      = 2026-004B
CENTER_NAME    = EARTH
REF_FRAME      = TEME
TIME_SYSTEM    = UTC
MEAN_ELEMENT_THEORY = SGP/SGP4

EPOCH          = 2026-02-09T05:04:12.728352
MEAN_MOTION    = 14.87219236
ECCENTRICITY   = .00084185
INCLINATION    = 97.8011
RA_OF_ASC_NODE = 40.8671
ARG_OF_PERICENTER = 186.0544
MEAN_ANOMALY   = 174.0572

EPHEMERIS_TYPE = 0
CLASSIFICATION_TYPE = U
NORAD_CAT_ID   = 67364
ELEMENT_SET_NO = 999
REV_AT_EPOCH   = 426
BSTAR          = .80668543E-3
MEAN_MOTION_DOT = .7218E-4
MEAN_MOTION_DDOT = 0

CCSDS_OMM_VERS = 2.0
CREATION_DATE  = 
ORIGINATOR     = 

OBJECT_NAME    = LEMUR-2-MARIO-SOUSA
OBJECT_ID      = 2026-004C
CENTER_NAME    = EARTH
REF_FRAME      = TEME
TIME_SYSTEM    = UTC
MEAN_ELEMENT_THEORY = SGP/SGP4

EPOCH          = 2026-02-09T05:03:37.859040
MEAN_MOTION    = 14.87239862
ECCENTRICITY   = .0007978
INCLINATION    = 97.7987
RA_OF_ASC_NODE = 40.8625
ARG_OF_PERICENTER = 191.1975
MEAN_ANOMALY   = 168.9065

EPHEMERIS_TYPE = 0
CLASSIFICATION_TYPE = U
NORAD_CAT_ID   = 67365
ELEMENT_SET_NO = 999
REV_AT_EPOCH   = 426
BSTAR          = .78861813E-3
MEAN_MOTION_DOT = .7058E-4
MEAN_MOTION_DDOT = 0

CCSDS_OMM_VERS = 2.0
CREATION_DATE  = 
ORIGINATOR     = 

OBJECT_NAME    = TWILIGHT D
OBJECT_ID      = 2026-004D
CENTER_NAME    = EARTH
REF_FRAME      = TEME
TIME_SYSTEM    = UTC
MEAN_ELEMENT_THEORY = SGP/SGP4

EPOCH          = 2026-02-09T05:03:31.892256
MEAN_MOTION    = 14.87164193
ECCENTRICITY   = .00086015
INCLINATION    = 97.8046
RA_OF_ASC_NODE = 40.8748
ARG_OF_PERICENTER = 180.6226
MEAN_ANOMALY   = 179.4981

EPHEMERIS_TYPE = 0
CLASSIFICATION_TYPE = U
NORAD_CAT_ID   = 67366
ELEMENT_SET_NO = 999
REV_AT_EPOCH   = 426
BSTAR          = .53237841E-3
MEAN_MOTION_DOT = .4737E-4
MEAN_MOTION_DDOT = 0

CCSDS_OMM_VERS = 2.0
CREATION_DATE  = 
ORIGINATOR     = 

OBJECT_NAME    = LEMUR-2-SONNENBLUME
OBJECT_ID      = 2026-004E
CENTER_NAME    = EARTH
REF_FRAME      = TEME
TIME_SYSTEM    = UTC
MEAN_ELEMENT_THEORY = SGP/SGP4

EPOCH          = 2026-02-09T06:37:19.062048
MEAN_MOTION    = 14.87360167
ECCENTRICITY   = .00074452
INCLINATION    = 97.7975
RA_OF_ASC_NODE = 40.9286
ARG_OF_PERICENTER = 191.7738
MEAN_ANOMALY   = 168.3306

EPHEMERIS_TYPE = 0
CLASSIFICATION_TYPE = U
NORAD_CAT_ID   = 67367
ELEMENT_SET_NO = 999
REV_AT_EPOCH   = 427
BSTAR          = .85941557E-3
MEAN_MOTION_DOT = .7719E-4
MEAN_MOTION_DDOT = 0

CCSDS_OMM_VERS = 2.0
CREATION_DATE  = 
ORIGINATOR     = 

OBJECT_NAME    = LEMUR-2-WOBLER
OBJECT_ID      = 2026-004F
CENTER_NAME    = EARTH
REF_FRAME      = TEME
TIME_SYSTEM    = UTC
MEAN_ELEMENT_THEORY = SGP/SGP4

EPOCH          = 2026-02-09T04:59:29.368320
MEAN_MOTION    = 14.87378090
ECCENTRICITY   = .00079524
INCLINATION    = 97.8035
RA_OF_ASC_NODE = 40.8771
ARG_OF_PERICENTER = 181.2852
MEAN_ANOMALY   = 178.8345

EPHEMERIS_TYPE = 0
CLASSIFICATION_TYPE = U
NORAD_CAT_ID   = 67368
ELEMENT_SET_NO = 999
REV_AT_EPOCH   = 426
BSTAR          = .7368267E-3
MEAN_MOTION_DOT = .6613E-4
MEAN_MOTION_DDOT = 0

CCSDS_OMM_VERS = 2.0
CREATION_DATE  = 
ORIGINATOR     = 

OBJECT_NAME    = TWILIGHT G
OBJECT_ID      = 2026-004G
CENTER_NAME    = EARTH
REF_FRAME      = TEME
TIME_SYSTEM    = UTC
MEAN_ELEMENT_THEORY = SGP/SGP4

EPOCH          = 2026-02-09T06:35:48.720480
MEAN_MOTION    = 14.87296444
ECCENTRICITY   = .00067813
INCLINATION    = 97.7966
RA_OF_ASC_NODE = 40.9287
ARG_OF_PERICENTER = 194.4017
MEAN_ANOMALY   = 165.7007

EPHEMERIS_TYPE = 0
CLASSIFICATION_TYPE = U
NORAD_CAT_ID   = 67369
ELEMENT_SET_NO = 999
REV_AT_EPOCH   = 427
BSTAR          = .44857548E-3
MEAN_MOTION_DOT = .3995E-4
MEAN_MOTION_DDOT = 0

CCSDS_OMM_VERS = 2.0
CREATION_DATE  = 
ORIGINATOR     = 

OBJECT_NAME    = LEMUR-2-GRAM-E-SUE
OBJECT_ID      = 2026-004H
CENTER_NAME    = EARTH
REF_FRAME      = TEME
TIME_SYSTEM    = UTC
MEAN_ELEMENT_THEORY = SGP/SGP4

EPOCH          = 2026-02-09T04:56:23.425152
MEAN_MOTION    = 14.87495317
ECCENTRICITY   = .00065422
INCLINATION    = 97.7963
RA_OF_ASC_NODE = 40.8639
ARG_OF_PERICENTER = 193.2608
MEAN_ANOMALY   = 166.8437

EPHEMERIS_TYPE = 0
CLASSIFICATION_TYPE = U
NORAD_CAT_ID   = 67370
ELEMENT_SET_NO = 999
REV_AT_EPOCH   = 426
BSTAR          = .78742566E-3
MEAN_MOTION_DOT = .709E-4
MEAN_MOTION_DDOT = 0

CCSDS_OMM_VERS = 2.0
CREATION_DATE  = 
ORIGINATOR     = 

OBJECT_NAME    = UMBRA-12
OBJECT_ID      = 2026-004J
CENTER_NAME    = EARTH
REF_FRAME      = TEME
TIME_SYSTEM    = UTC
MEAN_ELEMENT_THEORY = SGP/SGP4

EPOCH          = 2026-02-09T04:46:15.560544
MEAN_MOTION    = 14.87919663
ECCENTRICITY   = .00060128
INCLINATION    = 97.8004
RA_OF_ASC_NODE = 40.8821
ARG_OF_PERICENTER = 177.4157
MEAN_ANOMALY   = 182.7092

EPHEMERIS_TYPE = 0
CLASSIFICATION_TYPE = U
NORAD_CAT_ID   = 67371
ELEMENT_SET_NO = 999
REV_AT_EPOCH   = 426
BSTAR          = .82772431E-3
MEAN_MOTION_DOT = .7535E-4
MEAN_MOTION_DDOT = 0

CCSDS_OMM_VERS = 2.0
CREATION_DATE  = 
ORIGINATOR     = 

OBJECT_NAME    = ICEYE-X63
OBJECT_ID      = 2026-004K
CENTER_NAME    = EARTH
REF_FRAME      = TEME
TIME_SYSTEM    = UTC
MEAN_ELEMENT_THEORY = SGP/SGP4

EPOCH          = 2026-02-09T04:39:37.459584
MEAN_MOTION    = 14.87993117
ECCENTRICITY   = .00042518
INCLINATION    = 97.7983
RA_OF_ASC_NODE = 40.8825
ARG_OF_PERICENTER = 171.9594
MEAN_ANOMALY   = 188.1692

EPHEMERIS_TYPE = 0
CLASSIFICATION_TYPE = U
NORAD_CAT_ID   = 67372
ELEMENT_SET_NO = 999
REV_AT_EPOCH   = 426
BSTAR          = .41108564E-3
MEAN_MOTION_DOT = .3719E-4
MEAN_MOTION_DDOT = 0

CCSDS_OMM_VERS = 2.0
CREATION_DATE  = 
ORIGINATOR     = 

OBJECT_NAME    = ICEYE-X64
OBJECT_ID      = 2026-004L
CENTER_NAME    = EARTH
REF_FRAME      = TEME
TIME_SYSTEM    = UTC
MEAN_ELEMENT_THEORY = SGP/SGP4

EPOCH          = 2026-02-09T04:50:31.542144
MEAN_MOTION    = 14.87593904
ECCENTRICITY   = .00057135
INCLINATION    = 97.7998
RA_OF_ASC_NODE = 40.8765
ARG_OF_PERICENTER = 183.6875
MEAN_ANOMALY   = 176.4300

EPHEMERIS_TYPE = 0
CLASSIFICATION_TYPE = U
NORAD_CAT_ID   = 67373
ELEMENT_SET_NO = 999
REV_AT_EPOCH   = 426
BSTAR          = .44179997E-3
MEAN_MOTION_DOT = .3962E-4
MEAN_MOTION_DDOT = 0

CCSDS_OMM_VERS = 2.0
CREATION_DATE  = 
ORIGINATOR     = 

OBJECT_NAME    = AETHER-3
OBJECT_ID      = 2026-004M
CENTER_NAME    = EARTH
REF_FRAME      = TEME
TIME_SYSTEM    = UTC
MEAN_ELEMENT_THEORY = SGP/SGP4

EPOCH          = 2026-02-09T04:41:13.188192
MEAN_MOTION    = 14.87948169
ECCENTRICITY   = .00045136
INCLINATION    = 97.7981
RA_OF_ASC_NODE = 40.8797
ARG_OF_PERICENTER = 172.7037
MEAN_ANOMALY   = 187.4246

EPHEMERIS_TYPE = 0
CLASSIFICATION_TYPE = U
NORAD_CAT_ID   = 67374
ELEMENT_SET_NO = 999
REV_AT_EPOCH   = 426
BSTAR          = .37193288E-3
MEAN_MOTION_DOT = .3356E-4
MEAN_MOTION_DDOT = 0

