LEMUR-2-KUTAR           
1 67363U 26004A   26040.21323436  .00007093  00000+0  79546-3 0  9995
2 67363  97.8009  40.8642 0008452 190.4973 169.6068 14.87084781  4251
LEMUR-2-CALLUM-K-J      
1 67364U 26004B   26040.21125843  .00007218  00000+0  80669-3 0  9995
2 67364  97.8011  40.8671 0008418 186.0544 174.0572 14.87219236  4260
LEMUR-2-MARIO-SOUSA     
1 67365U 26004C   26040.21085485  .00007058  00000+0  78862-3 0  9997
2 67365  97.7987  40.8625 0007978 191.1975 168.9065 14.87239862  4262
TWILIGHT D              
1 67366U 26004D   26040.21078579  .00004737  00000+0  53238-3 0  9995
2 67366  97.8046  40.8748 0008601 180.6226 179.4981 14.87164193  4260
LEMUR-2-SONNENBLUME     
1 67367U 26004E   26040.27591507  .00007719  00000+0  85942-3 0  9993
2 67367  97.7975  40.9286 0007445 191.7738 168.3306 14.87360167  4273
LEMUR-2-WOBLER          
1 67368U 26004F   26040.20797880  .00006613  00000+0  73683-3 0  9990
2 67368  97.8035  40.8771 0007952 181.2852 178.8345 14.87378090  4266
TWILIGHT G              
1 67369U 26004G   26040.27486945  .00003995  00000+0  44858-3 0  9997
2 67369  97.7966  40.9287 0006781 194.4017 165.7007 14.87296444  4273
LEMUR-2-GRAM-E-SUE      
1 67370U 26004H   26040.20582668  .00007090  00000+0  78743-3 0  9991
2 67370  97.7963  40.8639 0006542 193.2608 166.8437 14.87495317  4268
UMBRA-12                
1 67371U 26004J   26040.19879121  .00007535  00000+0  82772-3 0  9994
2 67371  97.8004  40.8821 0006012 177.4157 182.7092 14.87919663  4263
ICEYE-X63               
1 67372U 26004K   26040.19418356  .00003719  00000+0  41109-3 0  9993
2 67372  97.7983  40.8825 0004251 171.9594 188.1692 14.87993117  4262
ICEYE-X64               
1 67373U 26004L   26040.20175396  .00003962  00000+0  44180-3 0  9992
2 67373  97.7998  40.8765 0005713 183.6875 176.4300 14.87593904  4264
AETHER-3                
1 67374U 26004M   26040.19529153  .00003356  00000+0  37193-3 0  9998
2 67374  97.7981  40.8797 0004513 172.7037 187.4246 14.87948169  4266
